{"type": "FeatureCollection", "features": [ {"type": "Feature", "properties": {"norad_id": 41836, "name": "HIMAWARI-9", "group": "weather", "lat": -0.02435359182528713, "lon": -33.359695258356616, "alt_km": 35783.20892969276, "timestamp": "2025-12-11T07:02:23.376342+00:00", "meta": {"OBJECT_NAME": "HIMAWARI-9", "OBJECT_ID": "2016-064A", "EPOCH": "2025-12-10T21:03:32.879232", "MEAN_MOTION": 1.00272945, "ECCENTRICITY": 0.00011781, "INCLINATION": 0.0294, "RA_OF_ASC_NODE": 85.2644, "ARG_OF_PERICENTER": 182.8349, "MEAN_ANOMALY": 268.4113, "EPHEMERIS_TYPE": 0, "CLASSIFICATION_TYPE": "U", "NORAD_CAT_ID": 41836, "ELEMENT_SET_NO": 999, "REV_AT_EPOCH": 3332, "BSTAR": 0, "MEAN_MOTION_DOT": -2.69e-06, "MEAN_MOTION_DDOT": 0}, "tle": {"line1": "1 41836U 16064A   25344.87746388 -.00000269  00000+0  00000+0 0  9994", "line2": "2 41836   0.0294  85.2644 0001178 182.8349 268.4113  1.00272945 33326"}}, "geometry": {"type": "Point", "coordinates": [-33.359695258356616, -0.02435359182528713]}}, {"type": "Feature", "properties": {"norad_id": 41866, "name": "GOES 16", "group": "weather", "lat": -0.0038917157599900644, "lon": 81.176846769472, "alt_km": 35800.33507227606, "timestamp": "2025-12-11T07:02:23.376354+00:00", "meta": {"OBJECT_NAME": "GOES 16", "OBJECT_ID": "2016-071A", "EPOCH": "2025-12-10T19:53:24.597024", "MEAN_MOTION": 1.00271315, "ECCENTRICITY": 0.00033358, "INCLINATION": 0.0654, "RA_OF_ASC_NODE": 104.0037, "ARG_OF_PERICENTER": 157.7169, "MEAN_ANOMALY": 11.7576, "EPHEMERIS_TYPE": 0, "CLASSIFICATION_TYPE": "U", "NORAD_CAT_ID": 41866, "ELEMENT_SET_NO": 999, "REV_AT_EPOCH": 3321, "BSTAR": 0, "MEAN_MOTION_DOT": -8.6e-07, "MEAN_MOTION_DDOT": 0}, "tle": {"line1": "1 41866U 16071A   25344.82875691 -.00000086  00000+0  00000+0 0  9997", "line2": "2 41866   0.0654 104.0037 0003335 157.7169  11.7576  1.00271315 33213"}}, "geometry": {"type": "Point", "coordinates": [81.176846769472, -0.0038917157599900644]}}, {"type": "Feature", "properties": {"norad_id": 41882, "name": "FENGYUN 4A", "group": "weather", "lat": -1.3676076484438022, "lon": -50.26912653681363, "alt_km": 35783.5108058753, "timestamp": "2025-12-11T07:02:23.376366+00:00", "meta": {"OBJECT_NAME": "FENGYUN 4A", "OBJECT_ID": "2016-077A", "EPOCH": "2025-12-10T20:58:33.357216", "MEAN_MOTION": 1.00270494, "ECCENTRICITY": 0.00049619, "INCLINATION": 1.8446, "RA_OF_ASC_NODE": 82.4004, "ARG_OF_PERICENTER": 145.8302, "MEAN_ANOMALY": 290.0903, "EPHEMERIS_TYPE": 0, "CLASSIFICATION_TYPE": "U", "NORAD_CAT_ID": 41882, "ELEMENT_SET_NO": 999, "REV_AT_EPOCH": 3304, "BSTAR": 0, "MEAN_MOTION_DOT": -3.52e-06, "MEAN_MOTION_DDOT": 0}, "tle": {"line1": "1 41882U 16077A   25344.87399719 -.00000352  00000+0  00000+0 0  9994", "line2": "2 41882   1.8446  82.4004 0004961 145.8302 290.0903  1.00270494 33049"}}, "geometry": {"type": "Point", "coordinates": [-50.26912653681363, -1.3676076484438022]}}, {"type": "Feature", "properties": {"norad_id": 41884, "name": "CYGFM05", "group": "weather", "lat": -16.82950658938327, "lon": -97.76683136261691, "alt_km": 419.5673606113851, "timestamp": "2025-12-11T07:02:23.376378+00:00", "meta": {"OBJECT_NAME": "CYGFM05", "OBJECT_ID": "2016-078A", "EPOCH": "2025-12-10T14:39:13.190112", "MEAN_MOTION": 15.47511355, "ECCENTRICITY": 0.0009831, "INCLINATION": 34.9599, "RA_OF_ASC_NODE": 61.038, "ARG_OF_PERICENTER": 163.8231, "MEAN_ANOMALY": 196.2806, "EPHEMERIS_TYPE": 0, "CLASSIFICATION_TYPE": "U", "NORAD_CAT_ID": 41884, "ELEMENT_SET_NO": 999, "REV_AT_EPOCH": 49943, "BSTAR": 0.00053014, "MEAN_MOTION_DOT": 0.00028182, "MEAN_MOTION_DDOT": 0}, "tle": {"line1": "1 41884U 16078A   25344.61056933  .00028182  00000+0  53014-3 0  9994", "line2": "2 41884  34.9599  61.0380 0009831 163.8231 196.2806 15.47511355499437"}}, "geometry": {"type": "Point", "coordinates": [-97.76683136261691, -16.82950658938327]}}, {"type": "Feature", "properties": {"norad_id": 41885, "name": "CYGFM04", "group": "weather", "lat": 33.61119500028448, "lon": 103.61406615386188, "alt_km": 413.1267085488598, "timestamp": "2025-12-11T07:02:23.376389+00:00", "meta": {"OBJECT_NAME": "CYGFM04", "OBJECT_ID": "2016-078B", "EPOCH": "2025-12-10T19:53:51.856224", "MEAN_MOTION": 15.50228881, "ECCENTRICITY": 0.00092662, "INCLINATION": 34.9355, "RA_OF_ASC_NODE": 34.4424, "ARG_OF_PERICENTER": 193.6147, "MEAN_ANOMALY": 166.4326, "EPHEMERIS_TYPE": 0, "CLASSIFICATION_TYPE": "U", "NORAD_CAT_ID": 41885, "ELEMENT_SET_NO": 999, "REV_AT_EPOCH": 49964, "BSTAR": 0.00053049655, "MEAN_MOTION_DOT": 0.00031045, "MEAN_MOTION_DDOT": 0}, "tle": {"line1": "1 41885U 16078B   25344.82907241  .00031045  00000+0  53050-3 0  9997", "line2": "2 41885  34.9355  34.4424 0009266 193.6147 166.4326 15.50228881499642"}}, "geometry": {"type": "Point", "coordinates": [103.61406615386188, 33.61119500028448]}}, {"type": "Feature", "properties": {"norad_id": 41886, "name": "CYGFM02", "group": "weather", "lat": 34.44398967402948, "lon": 108.91974929373949, "alt_km": 408.88217987664393, "timestamp": "2025-12-11T07:02:23.376400+00:00", "meta": {"OBJECT_NAME": "CYGFM02", "OBJECT_ID": "2016-078C", "EPOCH": "2025-12-10T19:52:57.076896", "MEAN_MOTION": 15.51599098, "ECCENTRICITY": 0.00109059, "INCLINATION": 34.9444, "RA_OF_ASC_NODE": 32.7978, "ARG_OF_PERICENTER": 193.1509, "MEAN_ANOMALY": 166.8931, "EPHEMERIS_TYPE": 0, "CLASSIFICATION_TYPE": "U", "NORAD_CAT_ID": 41886, "ELEMENT_SET_NO": 999, "REV_AT_EPOCH": 49977, "BSTAR": 0.00052443783, "MEAN_MOTION_DOT": 0.0003226, "MEAN_MOTION_DDOT": 0}, "tle": {"line1": "1 41886U 16078C   25344.82843839  .00032260  00000+0  52444-3 0  9996", "line2": "2 41886  34.9444  32.7978 0010905 193.1509 166.8931 15.51599098499778"}}, "geometry": {"type": "Point", "coordinates": [108.91974929373949, 34.44398967402948]}}, {"type": "Feature", "properties": {"norad_id": 41887, "name": "CYGFM01", "group": "weather", "lat": -32.890717689476965, "lon": -53.212403537151935, "alt_km": 424.1201321493136, "timestamp": "2025-12-11T07:02:23.376411+00:00", "meta": {"OBJECT_NAME": "CYGFM01", "OBJECT_ID": "2016-078D", "EPOCH": "2025-12-10T22:13:16.222080", "MEAN_MOTION": 15.48103632, "ECCENTRICITY": 0.00094243, "INCLINATION": 34.9432, "RA_OF_ASC_NODE": 61.3408, "ARG_OF_PERICENTER": 158.7693, "MEAN_ANOMALY": 201.3421, "EPHEMERIS_TYPE": 0, "CLASSIFICATION_TYPE": "U", "NORAD_CAT_ID": 41887, "ELEMENT_SET_NO": 999, "REV_AT_EPOCH": 49942, "BSTAR": 0.00053215326, "MEAN_MOTION_DOT": 0.00028881, "MEAN_MOTION_DDOT": 0}, "tle": {"line1": "1 41887U 16078D   25344.92588220  .00028881  00000+0  53215-3 0  9999", "line2": "2 41887  34.9432  61.3408 0009424 158.7693 201.3421 15.48103632499429"}}, "geometry": {"type": "Point", "coordinates": [-53.212403537151935, -32.890717689476965]}}, {"type": "Feature", "properties": {"norad_id": 41888, "name": "CYGFM08", "group": "weather", "lat": -31.639987264773307, "lon": -19.981170961998643, "alt_km": 422.92627634798464, "timestamp": "2025-12-11T07:02:23.376422+00:00", "meta": {"OBJECT_NAME": "CYGFM08", "OBJECT_ID": "2016-078E", "EPOCH": "2025-12-10T20:30:01.570176", "MEAN_MOTION": 15.49298183, "ECCENTRICITY": 0.001134, "INCLINATION": 34.9464, "RA_OF_ASC_NODE": 44.8236, "ARG_OF_PERICENTER": 182.0254, "MEAN_ANOMALY": 178.0423, "EPHEMERIS_TYPE": 0, "CLASSIFICATION_TYPE": "U", "NORAD_CAT_ID": 41888, "ELEMENT_SET_NO": 999, "REV_AT_EPOCH": 49964, "BSTAR": 0.00051397011, "MEAN_MOTION_DOT": 0.00029116, "MEAN_MOTION_DDOT": 0}, "tle": {"line1": "1 41888U 16078E   25344.85418484  .00029116  00000+0  51397-3 0  9997", "line2": "2 41888  34.9464  44.8236 0011340 182.0254 178.0423 15.49298183499646"}}, "geometry": {"type": "Point", "coordinates": [-19.981170961998643, -31.639987264773307]}}, {"type": "Feature", "properties": {"norad_id": 41890, "name": "CYGFM07", "group": "weather", "lat": -34.5104651279373, "lon": -48.96721350660245, "alt_km": 417.3220014073613, "timestamp": "2025-12-11T07:02:23.376433+00:00", "meta": {"OBJECT_NAME": "CYGFM07", "OBJECT_ID": "2016-078G", "EPOCH": "2025-12-10T12:50:25.836000", "MEAN_MOTION": 15.49858644, "ECCENTRICITY": 0.0009682, "INCLINATION": 34.9483, "RA_OF_ASC_NODE": 35.9073, "ARG_OF_PERICENTER": 196.6766, "MEAN_ANOMALY": 163.3639, "EPHEMERIS_TYPE": 0, "CLASSIFICATION_TYPE": "U", "NORAD_CAT_ID": 41890, "ELEMENT_SET_NO": 999, "REV_AT_EPOCH": 49961, "BSTAR": 0.00053788, "MEAN_MOTION_DOT": 0.0003107, "MEAN_MOTION_DDOT": 0}, "tle": {"line1": "1 41890U 16078G   25344.53502125  .00031070  00000+0  53788-3 0  9999", "line2": "2 41890  34.9483  35.9073 0009682 196.6766 163.3639 15.49858644499612"}}, "geometry": {"type": "Point", "coordinates": [-48.96721350660245, -34.5104651279373]}}, {"type": "Feature", "properties": {"norad_id": 41891, "name": "CYGFM03", "group": "weather", "lat": 31.701284588986248, "lon": 150.6558121739177, "alt_km": 410.04592355414115, "timestamp": "2025-12-11T07:02:23.376444+00:00", "meta": {"OBJECT_NAME": "CYGFM03", "OBJECT_ID": "2016-078H", "EPOCH": "2025-12-10T13:32:49.185888", "MEAN_MOTION": 15.49761353, "ECCENTRICITY": 0.0008968, "INCLINATION": 34.9436, "RA_OF_ASC_NODE": 37.6317, "ARG_OF_PERICENTER": 184.0085, "MEAN_ANOMALY": 176.0566, "EPHEMERIS_TYPE": 0, "CLASSIFICATION_TYPE": "U", "NORAD_CAT_ID": 41891, "ELEMENT_SET_NO": 999, "REV_AT_EPOCH": 49959, "BSTAR": 0.00052874, "MEAN_MOTION_DOT": 0.00030426, "MEAN_MOTION_DDOT": 0}, "tle": {"line1": "1 41891U 16078H   25344.56445817  .00030426  00000+0  52874-3 0  9996", "line2": "2 41891  34.9436  37.6317 0008968 184.0085 176.0566 15.49761353499599"}}, "geometry": {"type": "Point", "coordinates": [150.6558121739177, 31.701284588986248]}}]}